start=new Date('2022-06-23T00:00:00.000Z').valueOf();
sats=[{"RA_OF_ASC_NODE":"285.4057","BSTAR":"-0.00402050000000","MEAN_ANOMALY":"196.5136","ELEMENT_SET_NO":"999","REF_FRAME":"TEME","MEAN_ELEMENT_THEORY":"SGP4","EPOCH":"2022-06-22T22:00:00.999936","PERIAPSIS":"538.475","COUNTRY_CODE":"US","APOAPSIS":"540.832","MEAN_MOTION_DOT":"-0.00063761","ECCENTRICITY":"0.00017040","CLASSIFICATION_TYPE":"U","FILE":"3500001","INCLINATION":"53.2155","PERIOD":"95.436","RCS_SIZE":"LARGE","OBJECT_NAME":"STARLINK-3448","CENTER_NAME":"EARTH","MEAN_MOTION":"15.08870117","LAUNCH_DATE":"2022-02-21","ARG_OF_PERICENTER":"44.1889","SITE":"AFETR","SEMIMAJOR_AXIS":"6917.788","DECAY_DATE":null,"OBJECT_ID":"2022-016Q","REV_AT_EPOCH":"130","EPHEMERIS_TYPE":"0","GP_ID":"206650669","TIME_SYSTEM":"UTC","TLE_LINE1":"1 51728U 22016Q   22173.91667824 -.00063761  00000-0 -40205-2 0  9990","TLE_LINE2":"2 51728  53.2155 285.4057 0001704  44.1889 196.5136 15.08870117  1306","NORAD_CAT_ID":"51728","OBJECT_TYPE":"PAYLOAD","MEAN_MOTION_DDOT":"0.0000000000000"},{"TLE_LINE2":"2 51729  53.2146 285.0309 0001571  48.2615 225.4532 15.08878079 20035","TLE_LINE1":"1 51729U 22016R   22174.00002315 -.00066456  00000-0 -41919-2 0  9997","TIME_SYSTEM":"UTC","EPHEMERIS_TYPE":"0","GP_ID":"206626502","MEAN_MOTION_DDOT":"0.0000000000000","OBJECT_TYPE":"PAYLOAD","NORAD_CAT_ID":"51729","SITE":"AFETR","REV_AT_EPOCH":"2003","OBJECT_ID":"2022-016R","DECAY_DATE":null,"SEMIMAJOR_AXIS":"6917.764","INCLINATION":"53.2146","PERIOD":"95.435","CLASSIFICATION_TYPE":"U","FILE":"3499979","ECCENTRICITY":"0.00015710","ARG_OF_PERICENTER":"48.2615","LAUNCH_DATE":"2022-02-21","MEAN_MOTION":"15.08878079","CENTER_NAME":"EARTH","RCS_SIZE":"LARGE","OBJECT_NAME":"STARLINK-3523","MEAN_ANOMALY":"225.4532","REF_FRAME":"TEME","ELEMENT_SET_NO":"999","BSTAR":"-0.00419190000000","RA_OF_ASC_NODE":"285.0309","MEAN_MOTION_DOT":"-0.00066456","APOAPSIS":"540.716","EPOCH":"2022-06-23T00:00:02.000160","PERIAPSIS":"538.542","COUNTRY_CODE":"US","MEAN_ELEMENT_THEORY":"SGP4"},{"MEAN_MOTION_DDOT":"0.0000000000000","OBJECT_TYPE":"PAYLOAD","NORAD_CAT_ID":"51730","TLE_LINE2":"2 51730  53.2178 285.4139 0001641  48.2602 232.4116 15.08872115  1301","TLE_LINE1":"1 51730U 22016S   22173.91667824 -.00068461  00000-0 -43208-2 0  9991","TIME_SYSTEM":"UTC","GP_ID":"206650168","EPHEMERIS_TYPE":"0","REV_AT_EPOCH":"130","OBJECT_ID":"2022-016S","DECAY_DATE":null,"SEMIMAJOR_AXIS":"6917.782","SITE":"AFETR","ARG_OF_PERICENTER":"48.2602","LAUNCH_DATE":"2022-02-21","MEAN_MOTION":"15.08872115","CENTER_NAME":"EARTH","OBJECT_NAME":"STARLINK-3530","RCS_SIZE":"LARGE","PERIOD":"95.436","INCLINATION":"53.2178","FILE":"3500001","CLASSIFICATION_TYPE":"U","ECCENTRICITY":"0.00016410","MEAN_MOTION_DOT":"-0.00068461","APOAPSIS":"540.782","COUNTRY_CODE":"US","PERIAPSIS":"538.512","EPOCH":"2022-06-22T22:00:00.999936","MEAN_ELEMENT_THEORY":"SGP4","REF_FRAME":"TEME","ELEMENT_SET_NO":"999","MEAN_ANOMALY":"232.4116","BSTAR":"-0.00432080000000","RA_OF_ASC_NODE":"285.4139"},{"LAUNCH_DATE":"2022-02-21","ARG_OF_PERICENTER":"43.1385","RCS_SIZE":"LARGE","OBJECT_NAME":"STARLINK-3514","CENTER_NAME":"EARTH","MEAN_MOTION":"15.08845446","PERIOD":"95.437","INCLINATION":"53.2156","ECCENTRICITY":"0.00016870","CLASSIFICATION_TYPE":"U","FILE":"3500001","APOAPSIS":"540.896","MEAN_MOTION_DOT":"-0.00017905","MEAN_ELEMENT_THEORY":"SGP4","COUNTRY_CODE":"US","PERIAPSIS":"538.562","EPOCH":"2022-06-22T22:00:00.999936","RA_OF_ASC_NODE":"285.4076","BSTAR":"-0.00110950000000","REF_FRAME":"TEME","ELEMENT_SET_NO":"999","MEAN_ANOMALY":"177.5600","MEAN_MOTION_DDOT":"0.0000000000000","NORAD_CAT_ID":"51731","OBJECT_TYPE":"PAYLOAD","TLE_LINE1":"1 51731U 22016T   22173.91667824 -.00017905  00000-0 -11095-2 0  9998","TLE_LINE2":"2 51731  53.2156 285.4076 0001687  43.1385 177.5600 15.08845446  1304","EPHEMERIS_TYPE":"0","GP_ID":"206650419","TIME_SYSTEM":"UTC","REV_AT_EPOCH":"130","SEMIMAJOR_AXIS":"6917.864","DECAY_DATE":null,"OBJECT_ID":"2022-016T","SITE":"AFETR"},{"NORAD_CAT_ID":"51732","OBJECT_TYPE":"PAYLOAD","MEAN_MOTION_DDOT":"0.0000000000000","GP_ID":"206626451","EPHEMERIS_TYPE":"0","TIME_SYSTEM":"UTC","TLE_LINE1":"1 51732U 22016U   22174.00002315 -.00020812  00000-0 -12929-2 0  9996","TLE_LINE2":"2 51732  53.2190 285.0416 0001902  49.7247 343.9312 15.08851275 20044","SEMIMAJOR_AXIS":"6917.846","DECAY_DATE":null,"OBJECT_ID":"2022-016U","REV_AT_EPOCH":"2004","SITE":"AFETR","OBJECT_NAME":"STARLINK-3518","RCS_SIZE":"LARGE","CENTER_NAME":"EARTH","MEAN_MOTION":"15.08851275","LAUNCH_DATE":"2022-02-21","ARG_OF_PERICENTER":"49.7247","ECCENTRICITY":"0.00019020","FILE":"3499976","CLASSIFICATION_TYPE":"U","PERIOD":"95.437","INCLINATION":"53.2190","MEAN_ELEMENT_THEORY":"SGP4","COUNTRY_CODE":"US","PERIAPSIS":"538.395","EPOCH":"2022-06-23T00:00:02.000160","APOAPSIS":"541.027","MEAN_MOTION_DOT":"-0.00020812","RA_OF_ASC_NODE":"285.0416","BSTAR":"-0.00129290000000","ELEMENT_SET_NO":"999","REF_FRAME":"TEME","MEAN_ANOMALY":"343.9312"},{"TIME_SYSTEM":"UTC","GP_ID":"206649418","EPHEMERIS_TYPE":"0","TLE_LINE2":"2 51733  53.2157 285.4056 0001953  43.5483 217.1232 15.08857295  1301","TLE_LINE1":"1 51733U 22016V   22173.91667824 -.00020463  00000-0 -12706-2 0  9993","OBJECT_TYPE":"PAYLOAD","NORAD_CAT_ID":"51733","MEAN_MOTION_DDOT":"0.0000000000000","SITE":"AFETR","OBJECT_ID":"2022-016V","SEMIMAJOR_AXIS":"6917.828","DECAY_DATE":null,"REV_AT_EPOCH":"130","CLASSIFICATION_TYPE":"U","FILE":"3500001","ECCENTRICITY":"0.00019530","INCLINATION":"53.2157","PERIOD":"95.436","MEAN_MOTION":"15.08857295","CENTER_NAME":"EARTH","RCS_SIZE":"LARGE","OBJECT_NAME":"STARLINK-3525","ARG_OF_PERICENTER":"43.5483","LAUNCH_DATE":"2022-02-21","MEAN_ANOMALY":"217.1232","REF_FRAME":"TEME","ELEMENT_SET_NO":"999","BSTAR":"-0.00127060000000","RA_OF_ASC_NODE":"285.4056","EPOCH":"2022-06-22T22:00:00.999936","COUNTRY_CODE":"US","PERIAPSIS":"538.341","MEAN_ELEMENT_THEORY":"SGP4","MEAN_MOTION_DOT":"-0.00020463","APOAPSIS":"541.044"},{"REV_AT_EPOCH":"131","OBJECT_ID":"2022-016W","DECAY_DATE":null,"SEMIMAJOR_AXIS":"6917.803","SITE":"AFETR","MEAN_MOTION_DDOT":"0.0000000000000","OBJECT_TYPE":"PAYLOAD","NORAD_CAT_ID":"51734","TLE_LINE2":"2 51734  53.2150 285.4143 0001643  47.9862 312.7103 15.08865455  1314","TLE_LINE1":"1 51734U 22016W   22173.91667824 -.00061075  00000-0 -38494-2 0  9990","TIME_SYSTEM":"UTC","EPHEMERIS_TYPE":"0","GP_ID":"206649668","MEAN_MOTION_DOT":"-0.00061075","APOAPSIS":"540.804","EPOCH":"2022-06-22T22:00:00.999936","COUNTRY_CODE":"US","PERIAPSIS":"538.531","MEAN_ELEMENT_THEORY":"SGP4","MEAN_ANOMALY":"312.7103","ELEMENT_SET_NO":"999","REF_FRAME":"TEME","RA_OF_ASC_NODE":"285.4143","BSTAR":"-0.00384940000000","ARG_OF_PERICENTER":"47.9862","LAUNCH_DATE":"2022-02-21","CENTER_NAME":"EARTH","MEAN_MOTION":"15.08865455","OBJECT_NAME":"STARLINK-3450","RCS_SIZE":"LARGE","INCLINATION":"53.2150","PERIOD":"95.436","FILE":"3500001","CLASSIFICATION_TYPE":"U","ECCENTRICITY":"0.00016430"},{"RA_OF_ASC_NODE":"285.4144","BSTAR":"-0.00128350000000","MEAN_ANOMALY":"269.0642","REF_FRAME":"TEME","ELEMENT_SET_NO":"999","APOAPSIS":"540.870","MEAN_MOTION_DOT":"-0.00020667","MEAN_ELEMENT_THEORY":"SGP4","EPOCH":"2022-06-22T22:00:00.999936","COUNTRY_CODE":"US","PERIAPSIS":"538.508","INCLINATION":"53.2182","PERIOD":"95.436","ECCENTRICITY":"0.00017070","CLASSIFICATION_TYPE":"U","FILE":"3500001","LAUNCH_DATE":"2022-02-21","ARG_OF_PERICENTER":"51.6045","OBJECT_NAME":"STARLINK-3517","RCS_SIZE":"LARGE","CENTER_NAME":"EARTH","MEAN_MOTION":"15.08858517","SITE":"AFETR","REV_AT_EPOCH":"130","SEMIMAJOR_AXIS":"6917.824","DECAY_DATE":null,"OBJECT_ID":"2022-016X","TLE_LINE1":"1 51735U 22016X   22173.91667824 -.00020667  00000-0 -12835-2 0  9994","TLE_LINE2":"2 51735  53.2182 285.4144 0001707  51.6045 269.0642 15.08858517  1309","GP_ID":"206650920","EPHEMERIS_TYPE":"0","TIME_SYSTEM":"UTC","MEAN_MOTION_DDOT":"0.0000000000000","NORAD_CAT_ID":"51735","OBJECT_TYPE":"PAYLOAD"},{"SITE":"AFETR","REV_AT_EPOCH":"130","DECAY_DATE":null,"SEMIMAJOR_AXIS":"6917.846","OBJECT_ID":"2022-016Y","TLE_LINE1":"1 51736U 22016Y   22173.91667824 -.00016191  00000-0 -10011-2 0  9996","TLE_LINE2":"2 51736  53.2135 285.4144 0001930  47.4685 353.2126 15.08851348  1307","EPHEMERIS_TYPE":"0","GP_ID":"206650670","TIME_SYSTEM":"UTC","MEAN_MOTION_DDOT":"0.0000000000000","NORAD_CAT_ID":"51736","OBJECT_TYPE":"PAYLOAD","RA_OF_ASC_NODE":"285.4144","BSTAR":"-0.00100110000000","MEAN_ANOMALY":"353.2126","ELEMENT_SET_NO":"999","REF_FRAME":"TEME","APOAPSIS":"541.046","MEAN_MOTION_DOT":"-0.00016191","MEAN_ELEMENT_THEORY":"SGP4","EPOCH":"2022-06-22T22:00:00.999936","COUNTRY_CODE":"US","PERIAPSIS":"538.376","INCLINATION":"53.2135","PERIOD":"95.437","ECCENTRICITY":"0.00019300","FILE":"3500001","CLASSIFICATION_TYPE":"U","LAUNCH_DATE":"2022-02-21","ARG_OF_PERICENTER":"47.4685","RCS_SIZE":"LARGE","OBJECT_NAME":"STARLINK-3447","MEAN_MOTION":"15.08851348","CENTER_NAME":"EARTH"},{"TLE_LINE1":"1 51737U 22016Z   22173.91667824 -.00019500  00000-0 -12104-2 0  9999","TLE_LINE2":"2 51737  53.2143 285.4163 0001494  48.7681 291.9174 15.08841208  1308","GP_ID":"206649919","EPHEMERIS_TYPE":"0","TIME_SYSTEM":"UTC","MEAN_MOTION_DDOT":"0.0000000000000","NORAD_CAT_ID":"51737","OBJECT_TYPE":"PAYLOAD","SITE":"AFETR","REV_AT_EPOCH":"130","SEMIMAJOR_AXIS":"6917.877","DECAY_DATE":null,"OBJECT_ID":"2022-016Z","INCLINATION":"53.2143","PERIOD":"95.437","ECCENTRICITY":"0.00014940","FILE":"3500001","CLASSIFICATION_TYPE":"U","LAUNCH_DATE":"2022-02-21","ARG_OF_PERICENTER":"48.7681","RCS_SIZE":"LARGE","OBJECT_NAME":"STARLINK-3509","MEAN_MOTION":"15.08841208","CENTER_NAME":"EARTH","BSTAR":"-0.00121040000000","RA_OF_ASC_NODE":"285.4163","MEAN_ANOMALY":"291.9174","ELEMENT_SET_NO":"999","REF_FRAME":"TEME","APOAPSIS":"540.775","MEAN_MOTION_DOT":"-0.00019500","MEAN_ELEMENT_THEORY":"SGP4","EPOCH":"2022-06-22T22:00:00.999936","COUNTRY_CODE":"US","PERIAPSIS":"538.708"}];
